SiteCode,SiteName,Latitude,Longitude,LatLongDatumID,Elevation_m,VerticalDatum,LocalX,LocalY,LocalProjectionID,PosAccuracy_m,State,County,Comments
FLUME_LR,Lower Redondo Creek,35.8663,-106.5978,NAD83,2508,MSL,355745.5,3970298,NAD83 / UTM zone 13N,,NM,Sandoval,Contributing area 12825453 m2
FLUME_RM,Redondo Meadow,35.8546,-106.5941,NAD83,2471,MSL,356058.4,3968994.7,NAD83 / UTM zone 13N,,NM,Sandoval,Contributing area 1371378 m2
FLUME_MCZOB,MC ZOB Flume,35.88083,-106.53575,NAD83,3031,MSL,361373.3,3971820.3,NAD83 / UTM zone 13N,,NM,Sandoval,Contributing area 150970 m2
FLUME_HG16,History Grove  reinstalled in 2016,35.875834,-106.512709,NAD83,2681.4,NAVD88,363444.7,3971233.4,NAD83 / UTM zone 13N,,NM,Sandoval,Contributing area 2421122 m2
FLUME_HG,History Grove,35.8759,-106.5125,NAD83,2685,MSL,363463.7,3971240.4,NAD83 / UTM zone 13N,,NM,Sandoval,Contributing area 2421451 m2
FLUME_LJ,Lower Jaramillo Creek,35.8929,-106.4958,NAD83,2633,MSL,365000.2,3973102.9,NAD83 / UTM zone 13N,,NM,Sandoval,Contributing area 26570382 m2
FLUME_UJ,Upper Jaramillo Creek,35.9092,-106.5304,NAD83,2722,MSL,361905.6,3974959.3,NAD83 / UTM zone 13N,,NM,Sandoval,Contributing area 3055127 m2
FLUME_ULJ,Upper La Jara Creek,35.870333,-106.527312,NAD83,2775,MSL,362116.8,3970643.6,NAD83 / UTM zone 13N, ,NM,Sandoval,Contributing area 3459094 m2
FLUME_LLJ16,Lower La Jara Creek Flume reinstalled in 2016,35.867591,-106.523075,NAD83,2718.3,NAVD88,362494.6,3970333.5,NAD83 / UTM zone 13N,,NM,Sandoval,Contributing area 3666108 m2
FLUME_LLJ,Lower La Jara Creek,35.8667,-106.5215,NAD83,2696,MSL,362635.3,3970232.5,NAD83 / UTM zone 13N,,NM,Sandoval,Contributing area 3671857 m2
FLUME_UR,Upper Redondo Creek,35.8929,-106.5766,NAD83,2724,MSL,357707.2,3973217.5,NAD83 / UTM zone 13N,,NM,Sandoval,Contributing area 791409 m2
Tower_Vcm,Valles Caldera Mixed Conifer Flux Tower,35.889161,-106.532233,NAD83,3035,NAVD88,361704,3972664,NAD83 / UTM zone 13N,,NM,Sandoval,
Tower_Vcp,Valles Caldera Ponderosa Pine Flux Tower,35.864103,-106.596482,NAD83,2495,NAVD88,355860,3970052,NAD83 / UTM zone 13N,,NM,Sandoval,
MC_JuddNEcanopy,Mixed Conifer ZOB NE snow depth under canopy,35.882517,-106.535817,NAD83,3016,MSL,361370.2,3972007.2,NAD83 / UTM zone 13N,,NM,Sandoval,Snow depth sensor placed 152 cm above ground
MC_JuddNEopen,Mixed Conifer ZOB NE snow depth open,35.882517,-106.535733,NAD83,3014.8,MSL,361377.8,3972007,NAD83 / UTM zone 13N,,NM,Sandoval,Snow depth sensor placed 152 cm above ground
MC_JuddSWcanopy,Mixed Conifer ZOB SW snow depth under canopy,35.8824,-106.53475,NAD83,3015.1,MSL,361466.3,3971992.7,NAD83 / UTM zone 13N,,NM,Sandoval,Snow depth sensor placed 152 cm above ground
MC_JuddSWopen,Mixed Conifer ZOB SW snow depth open,35.882383,-106.5346,NAD83,3016.3,MSL,361479.8,3971990.6,NAD83 / UTM zone 13N,,NM,Sandoval,Snow depth sensor placed 152 cm above ground
MC_Piez1,Mixed Conifer ZOB shallow well (low elevation),35.881283,-106.535783,NAD83,2991.1,NAVD88,361371.1,3971870.2,NAD83 / UTM zone 13N,,NM,Sandoval,
MC_Piez2,Mixed Conifer ZOB shallow well (middle elevation),35.88175,-106.5358,NAD83,2996.3,NAVD88,361370.4,3971922.1,NAD83 / UTM zone 13N,,NM,Sandoval,
MC_Piez3,Mixed Conifer ZOB shallow well (heigh elevation),35.882733,-106.53565,NAD83,3007.2,NAVD88,361385.7,3972030.9,NAD83 / UTM zone 13N,,NM,Sandoval,
MC_Pit1,Mixed conifer ZOB Soil Pit 1,35.882467,-106.53405,NAD83,3017.5,MSL,361529.6,3971999.1,NAD83 / UTM zone 13N,,NM,Sandoval,
MC_Pit2,Mixed conifer ZOB Soil Pit 2,35.881983,-106.53575,NAD83,3009.3,MSL,361375.3,3971947.8,NAD83 / UTM zone 13N,,NM,Sandoval,
MC_Pit3,Mixed conifer ZOB Soil Pit 3,35.882783,-106.5374,NAD83,3048.3,MSL,361227.8,3972038.9,NAD83 / UTM zone 13N,,NM,Sandoval,
MC_Pit4,Mixed conifer ZOB Soil Pit 4,35.883167,-106.53715,NAD83,3047.4,MSL,361251,3972081.2,NAD83 / UTM zone 13N,,NM,Sandoval,
MC_Pit5,Mixed conifer ZOB Soil Pit 5,35.882867,-106.5355,NAD83,3026.4,MSL,361399.4,3972045.5,NAD83 / UTM zone 13N,,NM,Sandoval,
MC_Pit6,Mixed conifer ZOB Soil Pit 6,35.883,-106.534267,NAD83,3019,MSL,361511,3972058.5,NAD83 / UTM zone 13N,,NM,Sandoval,
MC_SE_Fir1,Mixed Conifer ZOB South-east Sap flow,35.882318,-106.534265,NAD83,3014.2,MSL,361510,3971983,NAD83 / UTM zone 13N, ,NM,Sandoval, 
MC_SE_Fir2,Mixed Conifer ZOB South-east Sap flow,35.882208,-106.534473,NAD83,3014.2,MSL,361491,3971971,NAD83 / UTM zone 13N, ,NM,Sandoval, 
MC_SE_Fir3,Mixed Conifer ZOB South-east Sap flow,35.88232,-106.534154,NAD83,3014.2,MSL,361520,3971983,NAD83 / UTM zone 13N, ,NM,Sandoval, 
MC_SE_Fir4,Mixed Conifer ZOB South-east Sap flow,35.882259,-106.534685,NAD83,3014.2,MSL,361472,3971977,NAD83 / UTM zone 13N, ,NM,Sandoval, 
MC_SE_Spruce1,Mixed Conifer ZOB South-east Sap flow,35.882361,-106.534432,NAD83,3014.2,MSL,361495,3971988,NAD83 / UTM zone 13N, ,NM,Sandoval, 
MC_SE_Spruce2,Mixed Conifer ZOB South-east Sap flow,35.882327,-106.534343,NAD83,3014.2,MSL,361503,3971984,NAD83 / UTM zone 13N, ,NM,Sandoval, 
MC_SE_Spruce3,Mixed Conifer ZOB South-east Sap flow,35.882209,-106.534385,NAD83,3014.2,MSL,361499,3971971,NAD83 / UTM zone 13N, ,NM,Sandoval, 
MC_SE_Spruce4,Mixed Conifer ZOB South-east Sap flow,35.882459,-106.534578,NAD83,3014.2,MSL,361482,3971999,NAD83 / UTM zone 13N,,NM,Sandoval,
MC_SW_Aspen1,Mixed Conifer ZOB South-west Sap flow,35.883356,-106.536323,NAD83,3020.6,MSL,361326,3972101,NAD83 / UTM zone 13N, ,NM,Sandoval, 
MC_SW_Aspen2,Mixed Conifer ZOB South-west Sap flow,35.883555,-106.536305,NAD83,3020.6,MSL,361328,3972123,NAD83 / UTM zone 13N, ,NM,Sandoval, 
MC_SW_Aspen3,Mixed Conifer ZOB South-west Sap flow,35.883628,-106.536218,NAD83,3020.6,MSL,361336,3972131,NAD83 / UTM zone 13N, ,NM,Sandoval, 
MC_SW_Spruce1,Mixed Conifer ZOB South-west Sap flow,35.883311,-106.536278,NAD83,3020.6,MSL,361330,3972096,NAD83 / UTM zone 13N, ,NM,Sandoval, 
MC_SW_Spruce2,Mixed Conifer ZOB South-west Sap flow,35.8835,-106.536359,NAD83,3020.6,MSL,361323,3972117,NAD83 / UTM zone 13N, ,NM,Sandoval, 
MC_SW_Spruce3,Mixed Conifer ZOB South-west Sap flow,35.883463,-106.536436,NAD83,3020.6,MSL,361316,3972113,NAD83 / UTM zone 13N, ,NM,Sandoval, 
MC_SW_Spruce4,Mixed Conifer ZOB South-west Sap flow,35.88348,-106.53647,NAD83,3020.6,MSL,361313,3972115,NAD83 / UTM zone 13N, ,NM,Sandoval, 
MC_SW_Spruce5,Mixed Conifer ZOB South-west Sap flow,35.883637,-106.536218,NAD83,3020.6,MSL,361336,3972132,NAD83 / UTM zone 13N, ,NM,Sandoval, 
Met1,Mixed conifer ZOB met station SE,35.882333,-106.534417,NAD83,3014.2,MSL,361496.3,3971984.8,NAD83 / UTM zone 13N,,NM,Sandoval,MConSE
Met2,Mixed conifer ZOB met station SW,35.883447,-106.536258,NAD83,3020.6,MSL,361332,3972111,NAD83 / UTM zone 13N,,NM,Sandoval,MConSW
RainColl_MCZOB_CC,Mixed Conifer ZOB Rain Collector closed canopy,35.8824,-106.53475,NAD83,3015.1,MSL,361466.3,3971992.7,NAD83 / UTM zone 13N,,NM,Sandoval,
MC_Meadow,Mixed Conifer ZOB Meadow Redox Site,35.881296,-106.535751,NAD83,2991.2,NAVD88,361374,3971871.6,NAD83 / UTM zone 13N,,NM,Sandoval,
MC_Well1A,Mixed Conifer ZOB Well 1A,35.88276,-106.53313,NAD83,3021,NAVD88,361613.2,3972030.3,NAD83 / UTM zone 13N,,NM,Sandoval,
MC_Well1B,Mixed Conifer ZOB Well 1B,35.88279,-106.53314,NAD83,3021,NAVD88,361612.3,3972033.7,NAD83 / UTM zone 13N,,NM,Sandoval,
MC_Well2A,Mixed Conifer ZOB Well 2A,35.88303,-106.53703,NAD83,3024,NAVD88,361261.6,3972065.8,NAD83 / UTM zone 13N,,NM,Sandoval,
MC_Well2B,Mixed Conifer ZOB Well 2B,35.88306,-106.53699,NAD83,3024,NAVD88,361265.5,3972069.1,NAD83 / UTM zone 13N,,NM,Sandoval,
MC_Well2C,Mixed Conifer ZOB Well 2C,35.88309,-106.53695,NAD83,3024,NAVD88,361268.6,3972071.9,NAD83 / UTM zone 13N,,NM,Sandoval,
MC_Well2D,Mixed Conifer ZOB Well 2D,35.88311,-106.53693,NAD83,3023,NAVD88,361270.8,3972074.5,NAD83 / UTM zone 13N,,NM,Sandoval,
MC_Well3A,Mixed Conifer ZOB Well 3B,35.88128,-106.5356,NAD83,2991,NAVD88,361387.6,3971869.6,NAD83 / UTM zone 13N,,NM,Sandoval,
MC_Well3B,Mixed Conifer ZOB Well 3A,35.88126,-106.53562,NAD83,2991,NAVD88,361385.8,3971867.5,NAD83 / UTM zone 13N,,NM,Sandoval,
Burn_Met_Low,Burned ZOB lower met station,35.851455,-106.449722,NAD83,2710,MSL,369091,3968443,NAD83 / UTM zone 13N,,NM,Sandoval,
Burn_Met_Up,Burned ZOB upper met station,35.847847,-106.449911,NAD83,2789,MSL,369068,3968043,NAD83 / UTM zone 13N,,NM,Sandoval,
Burn_Pit1,Burned ZOB Soil Pit 1,35.8503,-106.450587,NAD83,2699.3,NAVD88,369011,3968316,NAD83 / UTM zone 13N,,NM,Sandoval,
Burn_Pit2,Burned ZOB Soil Pit 2,35.85055,-106.450005,NAD83,2707.1,NAVD88,369064,3968343,NAD83 / UTM zone 13N,,NM,Sandoval,
Burn_Pit3,Burned ZOB Soil Pit 3,35.849364,-106.450448,NAD83,2727.7,NAVD88,369022,3968212,NAD83 / UTM zone 13N,,NM,Sandoval,
Burn_Pit4,Burned ZOB Soil Pit 4,35.847826,-106.449346,NAD83,2789.1,NAVD88,369119,3968040,NAD83 / UTM zone 13N,,NM,Sandoval,
Burn_Pit5,Burned ZOB Soil Pit 5,35.847973,-106.449925,NAD83,2788.1,NAVD88,369067,3968057,NAD83 / UTM zone 13N,,NM,Sandoval,
Burn_Pit6,Burned ZOB Soil Pit 6,35.848205,-106.450859,NAD83,2788.8,NAVD88,368983,3968084,NAD83 / UTM zone 13N,,NM,Sandoval,
Burn_Piez1,Burned ZOB Piezometer highest,35.849647,-106.450166,NAD83,2716,NAVD88,369048,3968243,NAD83 / UTM zone 13N, ,NM,Sandoval,
Burn_Piez2,Burned ZOB Piezometer middle,35.850266,-106.450409,NAD83,2699,NAVD88,369027,3968312,NAD83 / UTM zone 13N, ,NM,Sandoval,
Burn_Piez3,Burned ZOB Piezometer lowest,35.850957,-106.450655,NAD83,2684,NAVD88,369006,3968389,NAD83 / UTM zone 13N, ,NM,Sandoval,
RainColl_Burn_Low_CC,Burned ZOB rain collector at lower met station closed canopy,35.851455,-106.449722,NAD83,2710,MSL,369091,3968443,NAD83 / UTM zone 13N,,NM,Sandoval,
RainColl_Burn_Low_OC,Burned ZOB rain collector at lower met station open canopy,35.851455,-106.449722,NAD83,2710,MSL,369091,3968443,NAD83 / UTM zone 13N,,NM,Sandoval,
GREEN_Pit1,Unburned Site Pedon 1,35.91916,-106.61476,NAD83,2752,NAVD88,354311.1,3976186.7,NAD83 / UTM zone 13N,,NM,Sandoval,
GREEN_Pit2,Unburned Site Pedon 2,35.919463,-106.614797,NAD83,2751.3,NAVD88,354308.3,3976220.4,NAD83 / UTM zone 13N,,NM,Sandoval,
GREEN_Pit3,Unburned Site Pedon 3,35.919352,-106.61446,NAD83,2752.3,NAVD88,354338.5,3976207.6,NAD83 / UTM zone 13N,,NM,Sandoval,
GREEN_Pit1b,Unburned Site Pedon 1b for replaced sensors,35.919169,-106.61476,NAD83,2752,NAVD88,354311.1,3976187.7,NAD83 / UTM zone 13N,,NM,Sandoval,
GREEN_Pit3b,Unburned Site Pedon 3b for replaced sensors,35.919361,-106.61446,NAD83,2752.3,NAVD88,354338.5,3976208.6,NAD83 / UTM zone 13N,,NM,Sandoval,
GREEN_Tower,Unburned Site Flux Tower,35.919335,-106.614665,NAD83,2752,NAVD88,354320,3976206,NAD83 / UTM zone 13N,,NM,Sandoval,
BelowSouthSp,Below south spring before west fork only Uranium split,35.87876,-106.54395,NAD83,3069,MSL,360629.4,3971602,NAD83 / UTM zone 13N,,NM,Sandoval,Water Chemistry
Bucket_ZOB3,Bucket Snow Lysimeter 3,35.882234,-106.534582,NAD83,,,361481.2,3971974,NAD83 / UTM zone 13N,,NM,Sandoval,Water Chemistry
Bucket_ZOB5,Bucket Snow Lysimeter 5,35.882487,-106.534269,NAD83,,,361509.9,3972001.7,NAD83 / UTM zone 13N,,NM,Sandoval,Water Chemistry
Burn_Cen,Burned ZOB Center,35.848663,-106.450643,NAD83,2778.1,NAVD88,369003.2,3968134.4,NAD83 / UTM zone 13N,,NM,Sandoval,Water Chemistry
BurnLowSnow12,Lower burned snow pit,35.8513,-106.45003,NAD83,,,369063,3968430,NAD83 / UTM zone 13N,,NM,Sandoval,Water Chemistry
BurnUpSnow12,Upper burned snow pit,35.848149,-106.448969,NAD83,,,369154,3968080,NAD83 / UTM zone 13N,,NM,Sandoval,Water Chemistry
ConvUJFork,convergence Upper Jaramillo fork,35.90535,-106.54237,NAD83,,,360818.6,3974549.2,NAD83 / UTM zone 13N,,NM,Sandoval,Water Chemistry
CowboySp,Cowboy Spring,35.91025,-106.48499,NAD83,2656,MSL,366005.3,3975013,NAD83 / UTM zone 13N,,NM,Sandoval,Water Chemistry
EastForkLJAboveConf,East Fork La Jara above confluence,35.87516,-106.53117,NAD83,2880,MSL,361776.9,3971184.5,NAD83 / UTM zone 13N,,NM,Sandoval,Water Chemistry
EastSp,East spring (Es),35.89172,-106.5114,NAD83,,,363590.1,3972993.5,NAD83 / UTM zone 13N,,NM,Sandoval,Water Chemistry
EFAW,East Fork Artesian Well,35.86438,-106.45587,NAD83,,,368557.1,3969884.9,NAD83 / UTM zone 13N,,NM,Sandoval,Water Chemistry
EFHGmid,East Fork History Grovein the middle,35.88348,-106.5188,NAD83,2834,MSL,362908,3972090,NAD83 / UTM zone 13N,,NM,Sandoval,Water Chemistry
EFJ2/VGS1,EFJ2/VGS1,35.85132,-106.48567,NAD83,,,365844.2,3968476.2,NAD83 / UTM zone 13N,,NM,Sandoval,Water Chemistry
EFJ2/VGS1,EFJ2/VGS1trib,35.85132,-106.48567,NAD83,,,365844.2,3968476.2,NAD83 / UTM zone 13N,,NM,Sandoval,Water Chemistry
EFJ3/VGS2,EFJ3/VGS2,35.85132,-106.48567,NAD83,,,365844.2,3968476.2,NAD83 / UTM zone 13N,,NM,Sandoval,Water Chemistry
EFJ4/VGS3,EFJ4/VGS3,35.85132,-106.48567,NAD83,,,365844.2,3968476.2,NAD83 / UTM zone 13N,,NM,Sandoval,Water Chemistry
EFJ5/VGS4,EFJ5/VGS4,35.84592,-106.49625,NAD83,,,364879.8,3967892.3,NAD83 / UTM zone 13N,,NM,Sandoval,Water Chemistry
EFJ6/VGS5,EFJ6/VGS5,35.84592,-106.49625,NAD83,,,364879.8,3967892.3,NAD83 / UTM zone 13N,,NM,Sandoval,Water Chemistry
EFJ6/VGS5Jar,EFJ6/VGS5Jar,35.85487,-106.47836,NAD83,,,366510.3,3968860.9,NAD83 / UTM zone 13N,,NM,Sandoval,Water Chemistry
EFJ7/VGS6,EFJ7/VGS6,35.84592,-106.49625,NAD83,,,364879.8,3967892.3,NAD83 / UTM zone 13N,,NM,Sandoval,Water Chemistry
EFJGage,Gage Flume,35.83682,-106.50167,NAD83,,,364375.1,3966890,NAD83 / UTM zone 13N,,NM,Sandoval,Water Chemistry
EFJR,East Fork Jemez River,35.84848,-106.49075,NAD83,2592,MSL,365380.9,3968168.7,NAD83 / UTM zone 13N,,NM,Sandoval,Water Chemistry
EFRedondo1,EF Redondo 1,35.89642,-106.5707,NAD83,2826,MSL,358246.1,3973598.9,NAD83 / UTM zone 13N,,NM,Sandoval,Water Chemistry
EPSCOR,EPSCOR Meander ISCO,35.84096,-106.50138,NAD83,,,364408.1,3967349.2,NAD83 / UTM zone 13N,,NM,Sandoval,Water Chemistry
ERedondoSp6,E Redondo Spring 6,35.88031,-106.58666,NAD83,2780,MSL,356776.6,3971835.6,NAD83 / UTM zone 13N,,NM,Sandoval,Water Chemistry
FLUME_LJSSp,La Jara South Spring Flume,35.878584,-106.544462,NAD83,3082,NAVD88,360582.9,3971583.1,NAD83 / UTM zone 13N,,NM,Sandoval,Water Chemistry
FLUME_UJSp,Upper Jaramillo Spring Flume,35.895061,-106.537851,NAD83,2861,NAVD88,361208.5,3973401.5,NAD83 / UTM zone 13N,,NM,Sandoval,Water Chemistry
HGbelowConf,History Grove below confluence,35.8804,-106.51792,NAD83,2857,MSL,362982.5,3971747.5,NAD83 / UTM zone 13N,,NM,Sandoval,Water Chemistry
HGPond,History Grove Pond,35.88561,-106.53307,NAD83,3022,MSL,361623.6,3972346.4,NAD83 / UTM zone 13N,,NM,Sandoval,Water Chemistry
Hwy4Culvert,Hiway 4 culvert,35.85201,-106.45103,NAD83,,,368973.8,3968506.3,NAD83 / UTM zone 13N,,NM,Sandoval,Water Chemistry
JaramilloMid,Jaramillo Mid,35.91132,-106.51393,NAD83,2686,MSL,363395.5,3975171.3,NAD83 / UTM zone 13N,,NM,Sandoval,Water Chemistry
JemezAtJemez,Jemez River at Jemez Springs,35.77913,-106.6887,NAD83,,,347371.2,3960766.5,NAD83 / UTM zone 13N,,NM,Sandoval,Water Chemistry
JemezAtSEC,Jemez River at SEC,35.78027,-106.68798,NAD83,1916,MSL,347438.2,3960891.7,NAD83 / UTM zone 13N,,NM,Sandoval,Water Chemistry
LaJaraAboveSeep,La Jara stream above seep,35.87246,-106.5291,NAD83,,,361958.8,3970882.1,NAD83 / UTM zone 13N,,NM,Sandoval,Water Chemistry
LaJaraAboveSeep3,"3rd LaJara, above seep",35.87263,-106.52913,NAD83,,,361956.5,3970901.5,NAD83 / UTM zone 13N,,NM,Sandoval,Water Chemistry
LaJaraBelowConf,La Jara below confluence,35.87472,-106.53044,NAD83,2942.2,MSL,361842.1,3971134.7,NAD83 / UTM zone 13N,,NM,Sandoval,Water Chemistry
LaJaraMidWay,La Jara mid way between confluence and seep,35.8736,-106.52943,NAD83,2851.5,MSL,361931.5,3971008.5,NAD83 / UTM zone 13N,,NM,Sandoval,Water Chemistry
LaJaraNo2,La Jara No2,35.8724,-106.52904,NAD83,2834,MSL,361964.5,3970875.5,NAD83 / UTM zone 13N,,NM,Sandoval,Water Chemistry
LaJaraNo4,La Jara 4,35.88055,-106.53544,NAD83,3044,MSL,361400.5,3971788.5,NAD83 / UTM zone 13N,,NM,Sandoval,Water Chemistry
LaJaraNo5,La Jara 5,35.87577,-106.53175,NAD83,2884,MSL,361725.6,3971253,NAD83 / UTM zone 13N,,NM,Sandoval,Water Chemistry
LaJaraSeep,La Jara Seep (LJ4s),35.8724,-106.5295,NAD83,2859,MSL,361922.9,3970876,NAD83 / UTM zone 13N,,NM,Sandoval,Water Chemistry
LaJaraUpStreamOfSeep,La Jara stream upstream of seep,35.87257,-106.52913,NAD83,2837.2,MSL,361956.5,3970894.5,NAD83 / UTM zone 13N,,NM,Sandoval,Water Chemistry
LowerHG,Lower History Grove,35.87715,-106.51472,NAD83,,,363265.7,3971382.1,NAD83 / UTM zone 13N,,NM,Sandoval,Water Chemistry
MC_Cen,Mixed Conifer ZOB Center,35.88292,-106.53618,NAD83,3026.7,NAVD88,361338,3972052.6,NAD83 / UTM zone 13N,,NM,Sandoval,Water Chemistry
MC_OF2,Mixed Conifer ZOB - Overflow 2,35.882033,-106.535567,NAD83,3009.9,MSL,361391.9,3971953.1,NAD83 / UTM zone 13N,,NM,Sandoval,Water Chemistry
MC_SnowLys_SE,Mixed Conifer ZOB Snow Lysimeter,35.881135,-106.536387,NAD83,3017.8,MSL,361316.4,3971854.7,NAD83 / UTM zone 13N,,NM,Sandoval,Water Chemistry
MC_SnowLys_SW,Mixed Conifer ZOB Snow Lysimeter,35.882533,-106.534333,NAD83,3016,MSL,361504.2,3972006.8,NAD83 / UTM zone 13N,,NM,Sandoval,Water Chemistry
MC_ZOB_LowTrans1,MC ZOB Snow Low Transect,35.878645,-106.533197,NAD83,,,361600,3971574,NAD83 / UTM zone 13N,,NM,Sandoval,Water Chemistry
MC_ZOB_LowTrans2,MC ZOB Snow Low Transect,35.881219,-106.534221,NAD83,,,361512,3971861,NAD83 / UTM zone 13N,,NM,Sandoval,Water Chemistry
MC_ZOB_LowTrans3,MC ZOB Snow Low Transect,35.881197,-106.533157,NAD83,,,361608,3971857,NAD83 / UTM zone 13N,,NM,Sandoval,Water Chemistry
MC_ZOB_LowTrans4,MC ZOB Snow Low Transect,35.881272,-106.535762,NAD83,,,361373,3971869,NAD83 / UTM zone 13N,,NM,Sandoval,Water Chemistry
MeadowSp1,Meadow Spring 1,35.88583,-106.53703,NAD83,3022,MSL,361266.5,3972376.4,NAD83 / UTM zone 13N,,NM,Sandoval,Water Chemistry
MidRedondo,Mid Redondo Creek,35.87809,-106.58759,NAD83,2849,MSL,356688.5,3971590.5,NAD83 / UTM zone 13N,,NM,Sandoval,Water Chemistry
RainColl_HQ,VCNP weather station; Headquarters Station; Rain collector,35.8582,-106.5211,NAD83,2643.5,MSL,362656.8,3969289,NAD83 / UTM zone 13N,,NM,Sandoval,Water Chemistry
RainColl_LLJ,Lower La Jara Creek Rain Collector,35.8667,-106.5215,NAD83,2696,MSL,362635.3,3970232.5,NAD83 / UTM zone 13N,,NM,Sandoval,Water Chemistry
RainColl_MCZOB,Mixed conifer ZOB Rain Collector next to Met1,35.882333,-106.534417,NAD83,3014.2,MSL,361496.3,3971984.8,NAD83 / UTM zone 13N,,NM,Sandoval,Water Chemistry
RainColl_UJ,Upper Jaramillo Rain Collector next to flume,35.9092,-106.5304,NAD83,2722,MSL,361905.6,3974959.3,NAD83 / UTM zone 13N,,NM,Sandoval,Water Chemistry
RainISCO_JC,Jaramillo Rain ISCO,35.913993,-106.504857,NAD83,,,364218.8,3975455.2,NAD83 / UTM zone 13N,,NM,Sandoval,Water Chemistry
RedondoMeadowSp,Redondo Meadow Spring,35.85357,-106.59195,NAD83,2489,MSL,356250.7,3968876.9,NAD83 / UTM zone 13N,,NM,Sandoval,Water Chemistry
RedondoPond,Redondo Cr Pond,35.88839,-106.58215,NAD83,2664,MSL,357198.2,3972725.4,NAD83 / UTM zone 13N,,NM,Sandoval,Water Chemistry
RedondoSp1,Redondo Spring 1,35.88033,-106.58318,NAD83,2705,MSL,357090.7,3971832.8,NAD83 / UTM zone 13N,,NM,Sandoval,Water Chemistry
RedondoSp2,Redondo Spring 2,35.88156,-106.57353,NAD83,,,357964.1,3971955.2,NAD83 / UTM zone 13N,,NM,Sandoval,Water Chemistry
RedondoSp3,Redondo Spring 3,35.88717,-106.57201,NAD83,,,358111.3,3972575.3,NAD83 / UTM zone 13N,,NM,Sandoval,Water Chemistry
RedondoSp5,Upper Redondo Spring 5,35.89588,-106.5735,NAD83,,,357992.4,3973543.6,NAD83 / UTM zone 13N,,NM,Sandoval,Water Chemistry
SouthSp,South Spring (LJ2s),35.878317,-106.544717,NAD83,3086,MSL,360559.5,3971553.9,NAD83 / UTM zone 13N,,NM,Sandoval,Water Chemistry
SpringB,Spring B,35.90498,-106.52685,NAD83,2768,MSL,362218.6,3974486.6,NAD83 / UTM zone 13N,,NM,Sandoval,Water Chemistry
SpringE,Spring E,35.90232,-106.52873,NAD83,2821,MSL,362044,3974193.4,NAD83 / UTM zone 13N,,NM,Sandoval,Water Chemistry
SulfurSp,Sulfur Spring,35.90794,-106.6161,NAD83,2502,MSL,354169.6,3974944.1,NAD83 / UTM zone 13N,,NM,Sandoval,Water Chemistry
TopELJFSp,Top of East La Jara Fork Spring (Log Spring),35.8806,-106.5397,NAD83,3058,MSL,361016.3,3971800,NAD83 / UTM zone 13N,,NM,Sandoval,Water Chemistry
TopHGSp,Top of History Grove Spring (HGs),35.8895,-106.5222,NAD83,2920,MSL,362611.5,3972762.5,NAD83 / UTM zone 13N,,NM,Sandoval,Water Chemistry
TopUJSp,Top of Upper Jaramillo Spring (UJ2s and Wall Spring),35.89415,-106.5378,NAD83,2867,MSL,361211.5,3973299.8,NAD83 / UTM zone 13N,,NM,Sandoval,Water Chemistry
TopWLJF,Top of West La Jara Fork (LJ1s),35.88078,-106.54609,NAD83,3158,MSL,360439.5,3971829.5,NAD83 / UTM zone 13N,,NM,Sandoval,Water Chemistry
UnburnLowSnow12,Lower unburned snow pit,35.842796,-106.465004,NAD83,,,367697,3967500,NAD83 / UTM zone 13N,,NM,Sandoval,Water Chemistry
UnburnUpSnow12,Upper unburned snow pit,35.840866,-106.460262,NAD83,,,368122,3967280,NAD83 / UTM zone 13N,,NM,Sandoval,Water Chemistry
UpJaramilloPond1,Upper Jaramillo Pond 1,35.89912,-106.5413,NAD83,,,360904.3,3973856.7,NAD83 / UTM zone 13N,,NM,Sandoval,Water Chemistry
UpJaramilloPond2,Upper Jaramillo Pond 2,35.89528,-106.54552,NAD83,,,360516.7,3973436.7,NAD83 / UTM zone 13N,,NM,Sandoval,Water Chemistry
UpJaramilloSp3,Upper Jaramillo Spring 3 (UJ1s),35.8951,-106.5465,NAD83,2890,MSL,360427.9,3973418.1,NAD83 / UTM zone 13N,,NM,Sandoval,Water Chemistry
UpRedondoPondSp,Upper Redondo Pond Spring (UR1s),35.87876,-106.57523,NAD83,2840,MSL,357805.5,3971646.9,NAD83 / UTM zone 13N,,NM,Sandoval,Water Chemistry
UpRedondoPondSpSouth,Upper Redondo Pond Spring South (Mirror Pond),35.87833,-106.57492,NAD83,,,357832.8,3971598.9,NAD83 / UTM zone 13N,,NM,Sandoval,Water Chemistry
UpRedondoSp3,Upper Redondo Spring 3 (UR2s),35.8896,-106.5658,NAD83,2859,MSL,358676.2,3972835.8,NAD83 / UTM zone 13N,,NM,Sandoval,Water Chemistry
UR_Pond2,Upper Redondo Pond 2,35.88718,-106.57263,NAD83,,,358055.4,3972577.3,NAD83 / UTM zone 13N,,NM,Sandoval,Water Chemistry
USGS_JRgage,Jemez River USGS Gauge,35.66871,-106.74362,NAD83,1720,MSL,342189.2,3948605,NAD83 / UTM zone 13N,,NM,Sandoval,Water Chemistry
VGJJ1,VGJJ1,35.86425,-106.51616,NAD83,2661,MSL,363113.2,3969953.2,NAD83 / UTM zone 13N,,NM,Sandoval,Water Chemistry
VGJJ10,VGJJ10,35.85621,-106.49963,NAD83,,,364592.5,3969038.5,NAD83 / UTM zone 13N,,NM,Sandoval,Water Chemistry
VGJJ11,VGJJ11,35.86705,-106.45262,NAD83,,,368855,3970176.1,NAD83 / UTM zone 13N,,NM,Sandoval,Water Chemistry
VGJJ2,VGJJ2,35.87876,-106.49952,NAD83,2638,MSL,364640.4,3971539.9,NAD83 / UTM zone 13N,,NM,Sandoval,Water Chemistry
VGJJ3,VGJJ3,35.88645,-106.47283,NAD83,2631,MSL,367062.7,3972355.9,NAD83 / UTM zone 13N,,NM,Sandoval,Water Chemistry
VGJJ4,VGJJ4,35.8717,-106.44402,NAD83,2607,MSL,369639.1,3970681,NAD83 / UTM zone 13N,,NM,Sandoval,Water Chemistry
VGJJ5,VGJJ5,35.86244,-106.5196,NAD83,2664,MSL,362799.5,3969757.5,NAD83 / UTM zone 13N,,NM,Sandoval,Water Chemistry
VGJJ6,VGJJ6,35.85601,-106.51188,NAD83,,,363485.5,3969033.5,NAD83 / UTM zone 13N,,NM,Sandoval,Water Chemistry
VGJJ7,VGJJ7,35.83791,-106.50151,NAD83,2585,MSL,364391.2,3967011.1,NAD83 / UTM zone 13N,,NM,Sandoval,Water Chemistry
VGJJ8,VGJJ8,35.84077,-106.49916,NAD83,2589,MSL,364608.3,3967325,NAD83 / UTM zone 13N,,NM,Sandoval,Water Chemistry
VGJJ9,VGJJ9,35.84706,-106.49197,NAD83,2591,MSL,365268.5,3968013.2,NAD83 / UTM zone 13N,,NM,Sandoval,Water Chemistry
VGKC1,VGKC1,35.86731,-106.43425,NAD83,2619,MSL,370514,3970181,NAD83 / UTM zone 13N,,NM,Sandoval,Water Chemistry
VGKC2,VGKC2,35.86263,-106.43321,NAD83,2630,MSL,370600.3,3969660.5,NAD83 / UTM zone 13N,,NM,Sandoval,Water Chemistry
VGKC3,VGKC3,35.8625,-106.43684,NAD83,2616,MSL,370272.3,3969650.9,NAD83 / UTM zone 13N,,NM,Sandoval,Water Chemistry
VGKC4,VGKC4,35.85999,-106.44151,NAD83,2608,MSL,369846.5,3969378.7,NAD83 / UTM zone 13N,,NM,Sandoval,Water Chemistry
VGKC5,VGKC5,35.85425,-106.45301,NAD83,2626,MSL,368798.7,3968757.4,NAD83 / UTM zone 13N,,NM,Sandoval,Water Chemistry
WestTribLJ,West trib to La Jara,35.88068,-106.53573,NAD83,,,361374.6,3971802.7,NAD83 / UTM zone 13N,,NM,Sandoval,Water Chemistry
WFLJ1,WFLJ1,35.87981,-106.54445,NAD83,,,360586.2,3971719.2,NAD83 / UTM zone 13N,,NM,Sandoval,Water Chemistry
WFLJaboveConf,West Fork La Jara above confluence,35.87455,-106.53144,NAD83,2969,MSL,361751.5,3971117.5,NAD83 / UTM zone 13N,,NM,Sandoval,Water Chemistry
WFLJbelowSouthSp1,below  Confluence South spring and  West Fork La Jara,35.87862,-106.54238,NAD83,3040,MSL,360770.9,3971584.2,NAD83 / UTM zone 13N,,NM,Sandoval,Water Chemistry
WFLJbelowSouthSp2,below  Confluence South spring and  West Fork La Jara 2,35.875,-106.53704,NAD83,2997,MSL,361246.7,3971175.1,NAD83 / UTM zone 13N,,NM,Sandoval,Water Chemistry
WFLJbelowSouthSp3,below  Confluence South springand  West Fork La Jara 3,35.87443,-106.5358,NAD83,2971,MSL,361357.6,3971110.1,NAD83 / UTM zone 13N,,NM,Sandoval,Water Chemistry
WLJFaboveZOBfork,East Fork above ZOB fork,35.8748,-106.53086,NAD83,,,361804,3971144.1,NAD83 / UTM zone 13N,,NM,Sandoval,Water Chemistry
WRedondoSp5,W Redondo Spring 5,35.8959,-106.57,NAD83,2758,MSL,358308.3,3973540.7,NAD83 / UTM zone 13N,,NM,Sandoval,Water Chemistry
ZNF3,Snow sampling site,35.881045,-106.535756,NAD83,,,361373.1,3971843.8,NAD83 / UTM zone 13N,,NM,Sandoval,Water Chemistry
LJWatHqWT,La Jara well at Headquarters water tank,35.86684,-106.52127,NAD83,2702,NAVD88,362656,3970251,NAD83 / UTM zone 13N,,NM,Sandoval,Water Chemistry
JemezLibrary,Jemez River Library/Bath House,35.771574,-106.691473,NAD83,1886,NAVD88,347106,3959932.6,NAD83 / UTM zone 13N,,NM,Sandoval,Water Chemistry
JR_BattleshipRock,Battleship Rock - 100 m downstream of San Antonio and EFJR confluence,35.828655,-106.645777,NAD83,2059,NAVD88,351343.3,3966194,NAD83 / UTM zone 13N,,NM,Sandoval,Water Chemistry
RG_BernalilloBridge,Rio Grande under bridge in Bernalillo,-66,-66,NAD83,-66,NAVD88,-66,-66,NAD83 / UTM zone 13N,,NM,Sandoval,"Water Chemistry, Contact Alissa for coordinates"
RG_EBSP,Rio Grande at Elephant Butte State Park,-66,-66,NAD83,-66,NAVD88,-66,-66,NAD83 / UTM zone 13N,,NM,Sandoval,"Water Chemistry, Contact Alissa for coordinates"
SalamanderPond ,Salamander Pond ,-66,-66,NAD83,-66,NAVD88,-66,-66,NAD83 / UTM zone 13N,,NM,Sandoval,"Water Chemistry, Contact Alissa for coordinates"
RainColl_Burn_Low_CC,Burned ZOB rain collector at lower met station closed canopy,35.851455,-106.449722,NAD83,2710,MSL,369091,3968443,NAD83 / UTM zone 13N,,NM,Sandoval,Water Chemistry
 ZOBOpenPrcp, MC ZOB Open Precipitation,35.8775,-106.533056,NAD83,2953, MSL,361610.7,3971446.7,NAD83 / UTM zone 13N, , NM, Sandoval,Water Chemistry
 ZOBBurnStemflow, MC ZOB Burn Stemflow - Completely burned - no needles on any trees - tree type not distinguishable ,35.87771,-106.53323,NAD83,2980, MSL,361595.4,3971470.3,NAD83 / UTM zone 13N, , NM, Sandoval,Water Chemistry
 ZOBBurnThroughfall, MC ZOB Burn Throughfall - Completely burned - no needles on any trees - tree type not distinguishable,35.87771,-106.53323,NAD83,2980, MSL,361595.4,3971470.3,NAD83 / UTM zone 13N, , NM, Sandoval,Water Chemistry
 ZOBUnburnStemflow, MC ZOB Unburn Stemflow - green needles on all trees,35.87764,-106.5326,NAD83,2963, MSL,361652.1,3971461.6,NAD83 / UTM zone 13N, , NM, Sandoval,Water Chemistry
 ZOBUnburnThroughfall, MC ZOB Unburn Throughfall -  green needles on all trees,35.87764,-106.5326,NAD83,2963, MSL,361652.1,3971461.6,NAD83 / UTM zone 13N, , NM, Sandoval,Water Chemistry
 FluxOpenPrcp, Flux Tower Open Prcp,35.894444,-106.529444,NAD83,2946, MSL,361966.2,3973321.1,NAD83 / UTM zone 13N, , NM, Sandoval,Water Chemistry
 FluxBurnStemflow, Flux Tower  Burn Stemflow - Completely burned - no needles on any trees - tree type not distinguishable,35.89428,-106.5295,NAD83,2971, MSL,361960.9,3973303,NAD83 / UTM zone 13N, , NM, Sandoval,Water Chemistry
 FluxBurnThroughfall, Flux Tower  Burn Throughfall - Completely burned - no needles on any trees - tree type not distinguishable,35.89428,-106.5295,NAD83,2971, MSL,361960.9,3973303,NAD83 / UTM zone 13N, , NM, Sandoval,Water Chemistry
 FluxUnburnStemflow, Flux Tower Unburn Stemflow -  green needles on all trees,35.89486,-106.52931,NAD83,2976, MSL,361979,3973367.1,NAD83 / UTM zone 13N, , NM, Sandoval,Water Chemistry
 FluxUnburnThroughfall, Flux Tower Unburn Throughfall -  green needles on all trees,35.89486,-106.52931,NAD83,2976, MSL,361979,3973367.1,NAD83 / UTM zone 13N, , NM, Sandoval,Water Chemistry
